STARLINK-4482           
1 53530U 22101D   22241.58334491 -.01198878  00000+0 -82884-2 0  9995
2 53530  53.2176 106.2967 0003232 356.4278 170.5609 15.76608605  1304
STARLINK-4487           
1 53531U 22101E   22241.58334491 -.01198725  00000+0 -82936-2 0  9995
2 53531  53.2176 106.2971 0003238 355.9049 170.5682 15.76591290  1308
STARLINK-4483           
1 53532U 22101F   22241.58334491 -.01198621  00000+0 -82804-2 0  9995
2 53532  53.2176 106.2956 0003229 357.3774 170.1304 15.76624844  1302
STARLINK-4493           
1 53533U 22101G   22241.58334491 -.01198678  00000+0 -82737-2 0  9993
2 53533  53.2176 106.2940 0003429 354.6146 173.4107 15.76641401  1306
STARLINK-4488           
1 53534U 22101H   22241.58334491 -.01196515  00000+0 -82326-2 0  9996
2 53534  53.2176 106.2901 0003307   3.5322 166.5487 15.76708907  1304
STARLINK-4138           
1 53535U 22101J   22241.58334491 -.01197637  00000+0 -82542-2 0  9993
2 53535  53.2176 106.2920 0003158   1.2547 167.7957 15.76675966  1307
STARLINK-4053           
1 53536U 22101K   22241.58334491 -.01197545  00000+0 -82292-2 0  9994
2 53536  53.2176 106.2885 0003067   1.5407 169.5698 15.76743022  1306
STARLINK-4120           
1 53537U 22101L   22241.58334491 -.01198631  00000+0 -82684-2 0  9997
2 53537  53.2176 106.2933 0003053 358.3390 170.1952 15.76659833  1307
STARLINK-4118           
1 53538U 22101M   22241.58334491 -.01197496  00000+0 -82221-2 0  9993
2 53538  53.2176 106.2875 0003036   2.6721 168.9429 15.76761668  1305
STARLINK-4123           
1 53539U 22101N   22241.58334491 -.01196452  00000+0 -82399-2 0  9991
2 53539  53.2176 106.2911 0003008   6.3718 163.1958 15.76691792  1307
STARLINK-4486           
1 53540U 22101P   22241.58334491 -.01198261  00000+0 -82128-2 0  9993
2 53540  53.2175 106.2854 0003423 355.8292 176.8014 15.76797769  1309
STARLINK-4485           
1 53541U 22101Q   22241.58334491 -.01197395  00000+0 -82332-2 0  9998
2 53541  53.2176 106.2891 0003255   1.1684 169.4257 15.76726490  1301
STARLINK-4489           
1 53542U 22101R   22241.58334491 -.01197321  00000+0 -81946-2 0  9998
2 53542  53.2175 106.2834 0003238   1.8367 171.8231 15.76830082  1306
STARLINK-4297           
1 53543U 22101S   22241.58334491 -.01197465  00000+0 -82145-2 0  9990
2 53543  53.2175 106.2861 0003242   0.9799 171.1461 15.76778904  1303
STARLINK-4303           
1 53544U 22101T   22241.58334491 -.01197488  00000+0 -81838-2 0  9994
2 53544  53.2175 106.2814 0003167 359.4405 175.2417 15.76863961  1308
STARLINK-4475           
1 53545U 22101U   22241.58334491 -.01197891  00000+0 -82054-2 0  9994
2 53545  53.2175 106.2841 0003230 357.7143 175.4372 15.76812756  1308
